{
  "norad_id": 68959,
  "name": "STARLINK-37033",
  "history": [
    {
      "epoch": "2026-05-12T20:00:01.999008Z",
      "apogee_km": 328.50795593831117,
      "perigee_km": 327.20699301026343,
      "latitude_deg": 0.6726856364962784,
      "longitude_deg": 161.57243667975288,
      "height_km": 328.3805298819467,
      "semi_major_axis_km": 6705.994474474287,
      "eccentricity": 9.7e-05,
      "inclination_deg": 53.1596,
      "raan_deg": 331.6818,
      "arg_perigee_deg": 62.328,
      "mean_anomaly_deg": 298.6193,
      "mean_motion_rev_day": 15.80913016
    }
  ]
}