STARLINK-37033          
1 68959U 26099J   26132.83335648 -.00075075  00000+0 -37943-3 0  9991
2 68959  53.1596 331.6818 0000970  62.3280 298.6193 15.80913016  3033
